KUIPER-00095            
1 65134U 25171C   25245.19827038  .00078352  00000+0  22278-2 0  9998
2 65134  51.8766 300.2205 0004445 230.1316 129.9279 15.35448711  4584
KUIPER-00096            
1 65135U 25171D   25245.26007967  .00063621  00000+0  18000-2 0  9999
2 65135  51.8762 299.8835 0003559 220.1761 139.8962 15.35702548  4592
KUIPER-00097            
1 65136U 25171E   25245.19920739  .00027665  00000+0  80086-3 0  9995
2 65136  51.8768 300.2255 0004384 232.4893 127.5695 15.35374121  4578
KUIPER-00098            
1 65137U 25171F   25245.25434113  .00040388  00000+0  11376-2 0  9991
2 65137  51.8765 299.8511 0005239 199.3070 160.7719 15.36038865  3930
KUIPER-00099            
1 65138U 25171G   25245.25653039  .00045227  00000+0  12761-2 0  9998
2 65138  51.8771 299.8669 0004854 202.9334 157.1437 15.35935657  4581
KUIPER-00100            
1 65139U 25171H   25245.19394456  .00045172  00000+0  12821-2 0  9993
2 65139  51.8762 300.1898 0004687 212.1372 147.9329 15.35752136  4576
KUIPER-00102            
1 65140U 25171J   25245.19824104  .00056699  00000+0  16206-2 0  9990
2 65140  51.8762 300.2179 0004326 223.9574 136.1068 15.35431595  4578
KUIPER-00103            
1 65141U 25171K   25245.19573587  .00030166  00000+0  86405-3 0  9997
2 65141  51.8762 300.2007 0004022 219.3873 140.6821 15.35662297  4575
